[{"OBJECT_NAME":"STARLINK-30494","OBJECT_ID":"2023-151G","EPOCH":"2026-03-09T08:39:06.366240","MEAN_MOTION":15.28417441,"ECCENTRICITY":0.00011553,"INCLINATION":43.0027,"RA_OF_ASC_NODE":192.4566,"ARG_OF_PERICENTER":241.5536,"MEAN_ANOMALY":118.52,"EPHEMERIS_TYPE":0,"CLASSIFICATION_TYPE":"U","NORAD_CAT_ID":57970,"ELEMENT_SET_NO":999,"REV_AT_EPOCH":13740,"BSTAR":-3.569111e-5,"MEAN_MOTION_DOT":-1.272e-5,"MEAN_MOTION_DDOT":0},{"OBJECT_NAME":"STARLINK-31188","OBJECT_ID":"2024-012T","EPOCH":"2026-03-09T06:58:00.265440","MEAN_MOTION":15.27570984,"ECCENTRICITY":0.00010017,"INCLINATION":43.0029,"RA_OF_ASC_NODE":167.6084,"ARG_OF_PERICENTER":257.2675,"MEAN_ANOMALY":102.8065,"EPHEMERIS_TYPE":0,"CLASSIFICATION_TYPE":"U","NORAD_CAT_ID":58804,"ELEMENT_SET_NO":999,"REV_AT_EPOCH":12117,"BSTAR":2.231982e-5,"MEAN_MOTION_DOT":3.52e-6,"MEAN_MOTION_DDOT":0}]
